IRIDIUM 921             
1 24873U 97034E   24296.81003186  .00090755  00000+0  13297-2 0  9996
2 24873  86.3778 224.2893 0009736  95.3554 264.8819 15.55194824494897
IRIDIUM 26              
1 24903U 97043A   24296.80035267  .00000955  00000+0  31759-3 0  9991
2 24903  86.4018 210.2093 0002366  87.5879 272.5589 14.36712407422657
IRIDIUM 22              
1 24907U 97043E   24296.81615261  .00000943  00000+0  32065-3 0  9992
2 24907  86.4017 213.5368 0002309  81.7318 278.4140 14.35573627422715
DUMMY MASS 1            
1 24925U 97048A   24296.90444542  .00001132  00000+0  12487-3 0  9996
2 24925  86.3340 244.9357 0004194 267.8050  92.2694 14.86531066469874
DUMMY MASS 2            
1 24926U 97048B   24296.89460204  .00001123  00000+0  12458-3 0  9996
2 24926  86.3338 246.5054 0005054 284.6746  75.3918 14.86286394469657
IRIDIUM 29              
1 24944U 97051A   24296.91849295  .00001000  00000+0  33744-3 0  9999
2 24944  86.3953 243.3166 0002241  80.0502 280.0948 14.36022333419213
IRIDIUM 33              
1 24946U 97051C   24296.92873542  .00000735  00000+0  25341-3 0  9992
2 24946  86.3871 242.5587 0009629 122.6179 237.5948 14.34585519418722
IRIDIUM 28              
1 24948U 97051E   24296.90731444  .00000991  00000+0  32802-3 0  9990
2 24948  86.3965 240.9711 0002655  92.8474 267.3027 14.36970076419769
