<?xml version="1.0" encoding="UTF-8"?>
<ndm xmlns:xsi="http://www.w3.org/2001/XMLSchema-instance" xsi:noNamespaceSchemaLocation="https://sanaregistry.org/r/ndmxml_unqualified/ndmxml-2.0.0-master-2.0.xsd">
<omm id="CCSDS_OMM_VERS" version="2.0">
<header><CREATION_DATE/><ORIGINATOR/></header><body><segment><metadata><OBJECT_NAME>IRIDIUM 921</OBJECT_NAME><OBJECT_ID>1997-034E</OBJECT_ID><CENTER_NAME>EARTH</CENTER_NAME><REF_FRAME>TEME</REF_FRAME><TIME_SYSTEM>UTC</TIME_SYSTEM><MEAN_ELEMENT_THEORY>SGP4</MEAN_ELEMENT_THEORY></metadata><data><meanElements><EPOCH>2024-10-22T19:26:26.752704</EPOCH><MEAN_MOTION>15.55194824</MEAN_MOTION><ECCENTRICITY>.0009736</ECCENTRICITY><INCLINATION>86.3778</INCLINATION><RA_OF_ASC_NODE>224.2893</RA_OF_ASC_NODE><ARG_OF_PERICENTER>95.3554</ARG_OF_PERICENTER><MEAN_ANOMALY>264.8819</MEAN_ANOMALY></meanElements><tleParameters><EPHEMERIS_TYPE>0</EPHEMERIS_TYPE><CLASSIFICATION_TYPE>U</CLASSIFICATION_TYPE><NORAD_CAT_ID>24873</NORAD_CAT_ID><ELEMENT_SET_NO>999</ELEMENT_SET_NO><REV_AT_EPOCH>49489</REV_AT_EPOCH><BSTAR>.13297E-2</BSTAR><MEAN_MOTION_DOT>.90755E-3</MEAN_MOTION_DOT><MEAN_MOTION_DDOT>0</MEAN_MOTION_DDOT></tleParameters></data></segment></body></omm>
<omm id="CCSDS_OMM_VERS" version="2.0">
<header><CREATION_DATE/><ORIGINATOR/></header><body><segment><metadata><OBJECT_NAME>IRIDIUM 26</OBJECT_NAME><OBJECT_ID>1997-043A</OBJECT_ID><CENTER_NAME>EARTH</CENTER_NAME><REF_FRAME>TEME</REF_FRAME><TIME_SYSTEM>UTC</TIME_SYSTEM><MEAN_ELEMENT_THEORY>SGP4</MEAN_ELEMENT_THEORY></metadata><data><meanElements><EPOCH>2024-10-22T19:12:30.470688</EPOCH><MEAN_MOTION>14.36712407</MEAN_MOTION><ECCENTRICITY>.0002366</ECCENTRICITY><INCLINATION>86.4018</INCLINATION><RA_OF_ASC_NODE>210.2093</RA_OF_ASC_NODE><ARG_OF_PERICENTER>87.5879</ARG_OF_PERICENTER><MEAN_ANOMALY>272.5589</MEAN_ANOMALY></meanElements><tleParameters><EPHEMERIS_TYPE>0</EPHEMERIS_TYPE><CLASSIFICATION_TYPE>U</CLASSIFICATION_TYPE><NORAD_CAT_ID>24903</NORAD_CAT_ID><ELEMENT_SET_NO>999</ELEMENT_SET_NO><REV_AT_EPOCH>42265</REV_AT_EPOCH><BSTAR>.31759E-3</BSTAR><MEAN_MOTION_DOT>.955E-5</MEAN_MOTION_DOT><MEAN_MOTION_DDOT>0</MEAN_MOTION_DDOT></tleParameters></data></segment></body></omm>
<omm id="CCSDS_OMM_VERS" version="2.0">
<header><CREATION_DATE/><ORIGINATOR/></header><body><segment><metadata><OBJECT_NAME>IRIDIUM 22</OBJECT_NAME><OBJECT_ID>1997-043E</OBJECT_ID><CENTER_NAME>EARTH</CENTER_NAME><REF_FRAME>TEME</REF_FRAME><TIME_SYSTEM>UTC</TIME_SYSTEM><MEAN_ELEMENT_THEORY>SGP4</MEAN_ELEMENT_THEORY></metadata><data><meanElements><EPOCH>2024-10-22T19:35:15.585504</EPOCH><MEAN_MOTION>14.35573627</MEAN_MOTION><ECCENTRICITY>.0002309</ECCENTRICITY><INCLINATION>86.4017</INCLINATION><RA_OF_ASC_NODE>213.5368</RA_OF_ASC_NODE><ARG_OF_PERICENTER>81.7318</ARG_OF_PERICENTER><MEAN_ANOMALY>278.4140</MEAN_ANOMALY></meanElements><tleParameters><EPHEMERIS_TYPE>0</EPHEMERIS_TYPE><CLASSIFICATION_TYPE>U</CLASSIFICATION_TYPE><NORAD_CAT_ID>24907</NORAD_CAT_ID><ELEMENT_SET_NO>999</ELEMENT_SET_NO><REV_AT_EPOCH>42271</REV_AT_EPOCH><BSTAR>.32065E-3</BSTAR><MEAN_MOTION_DOT>.943E-5</MEAN_MOTION_DOT><MEAN_MOTION_DDOT>0</MEAN_MOTION_DDOT></tleParameters></data></segment></body></omm>
<omm id="CCSDS_OMM_VERS" version="2.0">
<header><CREATION_DATE/><ORIGINATOR/></header><body><segment><metadata><OBJECT_NAME>DUMMY MASS 1</OBJECT_NAME><OBJECT_ID>1997-048A</OBJECT_ID><CENTER_NAME>EARTH</CENTER_NAME><REF_FRAME>TEME</REF_FRAME><TIME_SYSTEM>UTC</TIME_SYSTEM><MEAN_ELEMENT_THEORY>SGP4</MEAN_ELEMENT_THEORY></metadata><data><meanElements><EPOCH>2024-10-22T21:42:24.084288</EPOCH><MEAN_MOTION>14.86531066</MEAN_MOTION><ECCENTRICITY>.0004194</ECCENTRICITY><INCLINATION>86.3340</INCLINATION><RA_OF_ASC_NODE>244.9357</RA_OF_ASC_NODE><ARG_OF_PERICENTER>267.8050</ARG_OF_PERICENTER><MEAN_ANOMALY>92.2694</MEAN_ANOMALY></meanElements><tleParameters><EPHEMERIS_TYPE>0</EPHEMERIS_TYPE><CLASSIFICATION_TYPE>U</CLASSIFICATION_TYPE><NORAD_CAT_ID>24925</NORAD_CAT_ID><ELEMENT_SET_NO>999</ELEMENT_SET_NO><REV_AT_EPOCH>46987</REV_AT_EPOCH><BSTAR>.12487E-3</BSTAR><MEAN_MOTION_DOT>.1132E-4</MEAN_MOTION_DOT><MEAN_MOTION_DDOT>0</MEAN_MOTION_DDOT></tleParameters></data></segment></body></omm>
<omm id="CCSDS_OMM_VERS" version="2.0">
<header><CREATION_DATE/><ORIGINATOR/></header><body><segment><metadata><OBJECT_NAME>DUMMY MASS 2</OBJECT_NAME><OBJECT_ID>1997-048B</OBJECT_ID><CENTER_NAME>EARTH</CENTER_NAME><REF_FRAME>TEME</REF_FRAME><TIME_SYSTEM>UTC</TIME_SYSTEM><MEAN_ELEMENT_THEORY>SGP4</MEAN_ELEMENT_THEORY></metadata><data><meanElements><EPOCH>2024-10-22T21:28:13.616256</EPOCH><MEAN_MOTION>14.86286394</MEAN_MOTION><ECCENTRICITY>.0005054</ECCENTRICITY><INCLINATION>86.3338</INCLINATION><RA_OF_ASC_NODE>246.5054</RA_OF_ASC_NODE><ARG_OF_PERICENTER>284.6746</ARG_OF_PERICENTER><MEAN_ANOMALY>75.3918</MEAN_ANOMALY></meanElements><tleParameters><EPHEMERIS_TYPE>0</EPHEMERIS_TYPE><CLASSIFICATION_TYPE>U</CLASSIFICATION_TYPE><NORAD_CAT_ID>24926</NORAD_CAT_ID><ELEMENT_SET_NO>999</ELEMENT_SET_NO><REV_AT_EPOCH>46965</REV_AT_EPOCH><BSTAR>.12458E-3</BSTAR><MEAN_MOTION_DOT>.1123E-4</MEAN_MOTION_DOT><MEAN_MOTION_DDOT>0</MEAN_MOTION_DDOT></tleParameters></data></segment></body></omm>
<omm id="CCSDS_OMM_VERS" version="2.0">
<header><CREATION_DATE/><ORIGINATOR/></header><body><segment><metadata><OBJECT_NAME>IRIDIUM 29</OBJECT_NAME><OBJECT_ID>1997-051A</OBJECT_ID><CENTER_NAME>EARTH</CENTER_NAME><REF_FRAME>TEME</REF_FRAME><TIME_SYSTEM>UTC</TIME_SYSTEM><MEAN_ELEMENT_THEORY>SGP4</MEAN_ELEMENT_THEORY></metadata><data><meanElements><EPOCH>2024-10-22T22:02:37.790880</EPOCH><MEAN_MOTION>14.36022333</MEAN_MOTION><ECCENTRICITY>.0002241</ECCENTRICITY><INCLINATION>86.3953</INCLINATION><RA_OF_ASC_NODE>243.3166</RA_OF_ASC_NODE><ARG_OF_PERICENTER>80.0502</ARG_OF_PERICENTER><MEAN_ANOMALY>280.0948</MEAN_ANOMALY></meanElements><tleParameters><EPHEMERIS_TYPE>0</EPHEMERIS_TYPE><CLASSIFICATION_TYPE>U</CLASSIFICATION_TYPE><NORAD_CAT_ID>24944</NORAD_CAT_ID><ELEMENT_SET_NO>999</ELEMENT_SET_NO><REV_AT_EPOCH>41921</REV_AT_EPOCH><BSTAR>.33744E-3</BSTAR><MEAN_MOTION_DOT>.1E-4</MEAN_MOTION_DOT><MEAN_MOTION_DDOT>0</MEAN_MOTION_DDOT></tleParameters></data></segment></body></omm>
<omm id="CCSDS_OMM_VERS" version="2.0">
<header><CREATION_DATE/><ORIGINATOR/></header><body><segment><metadata><OBJECT_NAME>IRIDIUM 33</OBJECT_NAME><OBJECT_ID>1997-051C</OBJECT_ID><CENTER_NAME>EARTH</CENTER_NAME><REF_FRAME>TEME</REF_FRAME><TIME_SYSTEM>UTC</TIME_SYSTEM><MEAN_ELEMENT_THEORY>SGP4</MEAN_ELEMENT_THEORY></metadata><data><meanElements><EPOCH>2024-10-22T22:17:22.740288</EPOCH><MEAN_MOTION>14.34585519</MEAN_MOTION><ECCENTRICITY>.0009629</ECCENTRICITY><INCLINATION>86.3871</INCLINATION><RA_OF_ASC_NODE>242.5587</RA_OF_ASC_NODE><ARG_OF_PERICENTER>122.6179</ARG_OF_PERICENTER><MEAN_ANOMALY>237.5948</MEAN_ANOMALY></meanElements><tleParameters><EPHEMERIS_TYPE>0</EPHEMERIS_TYPE><CLASSIFICATION_TYPE>U</CLASSIFICATION_TYPE><NORAD_CAT_ID>24946</NORAD_CAT_ID><ELEMENT_SET_NO>999</ELEMENT_SET_NO><REV_AT_EPOCH>41872</REV_AT_EPOCH><BSTAR>.25341E-3</BSTAR><MEAN_MOTION_DOT>.735E-5</MEAN_MOTION_DOT><MEAN_MOTION_DDOT>0</MEAN_MOTION_DDOT></tleParameters></data></segment></body></omm>
<omm id="CCSDS_OMM_VERS" version="2.0">
<header><CREATION_DATE/><ORIGINATOR/></header><body><segment><metadata><OBJECT_NAME>IRIDIUM 28</OBJECT_NAME><OBJECT_ID>1997-051E</OBJECT_ID><CENTER_NAME>EARTH</CENTER_NAME><REF_FRAME>TEME</REF_FRAME><TIME_SYSTEM>UTC</TIME_SYSTEM><MEAN_ELEMENT_THEORY>SGP4</MEAN_ELEMENT_THEORY></metadata><data><meanElements><EPOCH>2024-10-22T21:46:31.967616</EPOCH><MEAN_MOTION>14.36970076</MEAN_MOTION><ECCENTRICITY>.0002655</ECCENTRICITY><INCLINATION>86.3965</INCLINATION><RA_OF_ASC_NODE>240.9711</RA_OF_ASC_NODE><ARG_OF_PERICENTER>92.8474</ARG_OF_PERICENTER><MEAN_ANOMALY>267.3027</MEAN_ANOMALY></meanElements><tleParameters><EPHEMERIS_TYPE>0</EPHEMERIS_TYPE><CLASSIFICATION_TYPE>U</CLASSIFICATION_TYPE><NORAD_CAT_ID>24948</NORAD_CAT_ID><ELEMENT_SET_NO>999</ELEMENT_SET_NO><REV_AT_EPOCH>41976</REV_AT_EPOCH><BSTAR>.32802E-3</BSTAR><MEAN_MOTION_DOT>.991E-5</MEAN_MOTION_DOT><MEAN_MOTION_DDOT>0</MEAN_MOTION_DDOT></tleParameters></data></segment></body></omm>

</ndm>
